GLOBALSTAR M067         
1 32263U 07048A   25235.92301446 -.00000098  00000+0 -63182-5 0  9994
2 32263  51.9708 197.7304 0001071 111.7692 298.8503 12.40676038817890
GLOBALSTAR M070         
1 32264U 07048B   25235.61993326 -.00000054  00000+0  28025-3 0  9991
2 32264  51.9747 283.0784 0000254 135.5668  29.6646 12.62321625822183
GLOBALSTAR M066         
1 32265U 07048C   25234.30945156 -.00000091  00000+0  27954-4 0  9997
2 32265  51.9616 195.8994 0004349 118.6215  48.4624 12.30247153823433
GLOBALSTAR M068         
1 32266U 07048D   25235.91739124 -.00000058  00000+0  25197-3 0  9991
2 32266  51.9878  95.7918 0000649 336.6072 152.5382 12.62826868826117
GLOBALSTAR M079         
1 37188U 10054A   25235.90349559 -.00000078  00000+0  14132-3 0  9997
2 37188  52.0042 293.6504 0000696 102.7138  68.8274 12.62266224685001
GLOBALSTAR M074         
1 37189U 10054B   25235.93014302 -.00000069  00000+0  19400-3 0  9999
2 37189  52.0020 292.8830 0000529 128.7750  42.5525 12.62270928685615
GLOBALSTAR M076         
1 37190U 10054C   25235.55525020 -.00000064  00000+0  22396-3 0  9996
2 37190  52.0032 294.2006 0000742 118.8585  28.4618 12.62264813685289
GLOBALSTAR M077         
1 37191U 10054D   25235.78340700 -.00000102  00000+0  11940-4 0  9999
2 37191  52.0057 250.3714 0000274 106.5469  64.2176 12.62323004685680
